[{"OBJECT_NAME":"STARLINK-1063","OBJECT_ID":"2019-074BH","EPOCH":"2026-03-09T18:03:14.732640","MEAN_MOTION":15.29959368,"ECCENTRICITY":0.00012189,"INCLINATION":53.1603,"RA_OF_ASC_NODE":219.104,"ARG_OF_PERICENTER":60.1573,"MEAN_ANOMALY":299.9548,"EPHEMERIS_TYPE":0,"CLASSIFICATION_TYPE":"U","NORAD_CAT_ID":44768,"ELEMENT_SET_NO":999,"REV_AT_EPOCH":34832,"BSTAR":-0.029857537,"MEAN_MOTION_DOT":-0.00812325,"MEAN_MOTION_DDOT":0},{"OBJECT_NAME":"FLOCK 4G-9","OBJECT_ID":"2025-009P","EPOCH":"2026-03-09T19:25:28.387776","MEAN_MOTION":15.26202239,"ECCENTRICITY":0.00036141,"INCLINATION":97.4,"RA_OF_ASC_NODE":150.6115,"ARG_OF_PERICENTER":328.2191,"MEAN_ANOMALY":31.8829,"EPHEMERIS_TYPE":0,"CLASSIFICATION_TYPE":"U","NORAD_CAT_ID":62622,"ELEMENT_SET_NO":999,"REV_AT_EPOCH":6369,"BSTAR":0.00041816911,"MEAN_MOTION_DOT":0.00010752,"MEAN_MOTION_DDOT":0}]
