STARLINK-1063           
1 44768U 19074BH  26068.75225384 -.00812325  00000+0 -29858-1 0  9993
2 44768  53.1603 219.1040 0001219  60.1573 299.9548 15.29959368348324
FLOCK 4G-9              
1 62622U 25009P   26068.80935633  .00010752  00000+0  41817-3 0  9991
2 62622  97.4000 150.6115 0003614 328.2191  31.8829 15.26202239 63696
